start=new Date('2022-08-31T00:00:00.000Z').valueOf();
sats=[{"REF_FRAME":"TEME","TLE_LINE1":"1 52533U 22051A   22242.91667824  .00007379  00000-0  48136-3 0  9994","APOAPSIS":"541.856","EPOCH":"2022-08-30T22:00:00.999936","SEMIMAJOR_AXIS":"6917.913","EPHEMERIS_TYPE":"0","MEAN_MOTION_DDOT":"0.0000000000000","GP_ID":"211363809","CENTER_NAME":"EARTH","RA_OF_ASC_NODE":"145.6676","MEAN_ELEMENT_THEORY":"SGP4","ELEMENT_SET_NO":"999","DECAY_DATE":null,"FILE":"3552179","INCLINATION":"53.2168","NORAD_CAT_ID":"52533","BSTAR":"0.00048136000000","ARG_OF_PERICENTER":"67.2005","PERIOD":"95.438","OBJECT_ID":"2022-051A","OBJECT_NAME":"STARLINK-3951","CLASSIFICATION_TYPE":"U","TLE_LINE2":"2 52533  53.2168 145.6676 0003004  67.2005 232.8897 15.08829396  1301","SITE":"AFWTR","COUNTRY_CODE":"US","OBJECT_TYPE":"PAYLOAD","MEAN_ANOMALY":"232.8897","RCS_SIZE":"LARGE","MEAN_MOTION_DOT":"0.00007379","LAUNCH_DATE":"2022-05-13","PERIAPSIS":"537.700","TIME_SYSTEM":"UTC","REV_AT_EPOCH":"130","MEAN_MOTION":"15.08829396","ECCENTRICITY":"0.00030040"},{"OBJECT_TYPE":"PAYLOAD","COUNTRY_CODE":"US","RCS_SIZE":"LARGE","MEAN_MOTION_DOT":"-0.00019428","LAUNCH_DATE":"2022-05-13","PERIAPSIS":"538.007","MEAN_ANOMALY":"204.9334","CLASSIFICATION_TYPE":"U","ARG_OF_PERICENTER":"60.3785","PERIOD":"95.437","OBJECT_NAME":"STARLINK-3952","OBJECT_ID":"2022-051B","SITE":"AFWTR","TLE_LINE2":"2 52534  53.2172 145.6839 0002478  60.3785 204.9334 15.08847885  1300","MEAN_MOTION":"15.08847885","ECCENTRICITY":"0.00024780","TIME_SYSTEM":"UTC","REV_AT_EPOCH":"130","APOAPSIS":"541.436","SEMIMAJOR_AXIS":"6917.856","EPOCH":"2022-08-30T22:00:00.999936","REF_FRAME":"TEME","TLE_LINE1":"1 52534U 22051B   22242.91667824 -.00019428  00000-0 -12055-2 0  9995","ELEMENT_SET_NO":"999","DECAY_DATE":null,"FILE":"3552179","NORAD_CAT_ID":"52534","BSTAR":"-0.00120550000000","INCLINATION":"53.2172","CENTER_NAME":"EARTH","EPHEMERIS_TYPE":"0","MEAN_MOTION_DDOT":"0.0000000000000","GP_ID":"211363091","RA_OF_ASC_NODE":"145.6839","MEAN_ELEMENT_THEORY":"SGP4"},{"BSTAR":"-0.00127020000000","NORAD_CAT_ID":"52535","INCLINATION":"53.2156","ELEMENT_SET_NO":"999","FILE":"3552179","DECAY_DATE":null,"MEAN_ELEMENT_THEORY":"SGP4","RA_OF_ASC_NODE":"145.6786","CENTER_NAME":"EARTH","EPHEMERIS_TYPE":"0","GP_ID":"211363222","MEAN_MOTION_DDOT":"0.0000000000000","SEMIMAJOR_AXIS":"6917.836","EPOCH":"2022-08-30T22:00:00.999936","APOAPSIS":"541.541","TLE_LINE1":"1 52535U 22051C   22242.91667824 -.00020456  00000-0 -12702-2 0  9998","REF_FRAME":"TEME","ECCENTRICITY":"0.00026600","MEAN_MOTION":"15.08854451","REV_AT_EPOCH":"130","TIME_SYSTEM":"UTC","RCS_SIZE":"LARGE","LAUNCH_DATE":"2022-05-13","PERIAPSIS":"537.861","MEAN_MOTION_DOT":"-0.00020456","MEAN_ANOMALY":"223.9492","OBJECT_TYPE":"PAYLOAD","COUNTRY_CODE":"US","SITE":"AFWTR","TLE_LINE2":"2 52535  53.2156 145.6786 0002660  61.3365 223.9492 15.08854451  1305","CLASSIFICATION_TYPE":"U","ARG_OF_PERICENTER":"61.3365","PERIOD":"95.437","OBJECT_ID":"2022-051C","OBJECT_NAME":"STARLINK-3958"},{"REV_AT_EPOCH":"130","TIME_SYSTEM":"UTC","ECCENTRICITY":"0.00023640","MEAN_MOTION":"15.08847346","TLE_LINE2":"2 52536  53.2160 145.6789 0002364  64.3796 240.9440 15.08847346  1303","SITE":"AFWTR","OBJECT_NAME":"STARLINK-3964","OBJECT_ID":"2022-051D","PERIOD":"95.437","ARG_OF_PERICENTER":"64.3796","CLASSIFICATION_TYPE":"U","MEAN_ANOMALY":"240.9440","LAUNCH_DATE":"2022-05-13","PERIAPSIS":"538.088","MEAN_MOTION_DOT":"-0.00021346","RCS_SIZE":"LARGE","COUNTRY_CODE":"US","OBJECT_TYPE":"PAYLOAD","RA_OF_ASC_NODE":"145.6789","MEAN_ELEMENT_THEORY":"SGP4","GP_ID":"211363366","MEAN_MOTION_DDOT":"0.0000000000000","EPHEMERIS_TYPE":"0","CENTER_NAME":"EARTH","INCLINATION":"53.2160","BSTAR":"-0.00132670000000","NORAD_CAT_ID":"52536","DECAY_DATE":null,"FILE":"3552179","ELEMENT_SET_NO":"999","TLE_LINE1":"1 52536U 22051D   22242.91667824 -.00021346  00000-0 -13267-2 0  9995","REF_FRAME":"TEME","EPOCH":"2022-08-30T22:00:00.999936","SEMIMAJOR_AXIS":"6917.858","APOAPSIS":"541.358"},{"SITE":"AFWTR","TLE_LINE2":"2 52537  53.2167 145.6821 0002604  66.5504 258.7756 15.08846879  1303","CLASSIFICATION_TYPE":"U","OBJECT_ID":"2022-051E","OBJECT_NAME":"STARLINK-3897","ARG_OF_PERICENTER":"66.5504","PERIOD":"95.437","MEAN_MOTION_DOT":"-0.00022068","LAUNCH_DATE":"2022-05-13","PERIAPSIS":"537.923","RCS_SIZE":"LARGE","MEAN_ANOMALY":"258.7756","OBJECT_TYPE":"PAYLOAD","COUNTRY_CODE":"US","REV_AT_EPOCH":"130","TIME_SYSTEM":"UTC","ECCENTRICITY":"0.00026040","MEAN_MOTION":"15.08846879","TLE_LINE1":"1 52537U 22051E   22242.91667824 -.00022068  00000-0 -13723-2 0  9995","REF_FRAME":"TEME","SEMIMAJOR_AXIS":"6917.859","EPOCH":"2022-08-30T22:00:00.999936","APOAPSIS":"541.526","RA_OF_ASC_NODE":"145.6821","MEAN_ELEMENT_THEORY":"SGP4","CENTER_NAME":"EARTH","MEAN_MOTION_DDOT":"0.0000000000000","GP_ID":"211363654","EPHEMERIS_TYPE":"0","BSTAR":"-0.00137230000000","NORAD_CAT_ID":"52537","INCLINATION":"53.2167","DECAY_DATE":null,"FILE":"3552179","ELEMENT_SET_NO":"999"},{"APOAPSIS":"541.214","EPOCH":"2022-08-30T22:00:00.999936","SEMIMAJOR_AXIS":"6917.861","REF_FRAME":"TEME","TLE_LINE1":"1 52538U 22051F   22242.91667824 -.00037179  00000-0 -23295-2 0  9990","DECAY_DATE":null,"FILE":"3552179","ELEMENT_SET_NO":"999","INCLINATION":"53.2165","NORAD_CAT_ID":"52538","BSTAR":"-0.00232950000000","GP_ID":"211363510","MEAN_MOTION_DDOT":"0.0000000000000","EPHEMERIS_TYPE":"0","CENTER_NAME":"EARTH","MEAN_ELEMENT_THEORY":"SGP4","RA_OF_ASC_NODE":"145.6766","COUNTRY_CODE":"US","OBJECT_TYPE":"PAYLOAD","MEAN_ANOMALY":"299.8072","LAUNCH_DATE":"2022-05-13","MEAN_MOTION_DOT":"-0.00037179","PERIAPSIS":"538.238","RCS_SIZE":"LARGE","OBJECT_ID":"2022-051F","OBJECT_NAME":"STARLINK-3933","PERIOD":"95.437","ARG_OF_PERICENTER":"65.5194","CLASSIFICATION_TYPE":"U","TLE_LINE2":"2 52538  53.2165 145.6766 0002151  65.5194 299.8072 15.08846336  1306","SITE":"AFWTR","MEAN_MOTION":"15.08846336","ECCENTRICITY":"0.00021510","TIME_SYSTEM":"UTC","REV_AT_EPOCH":"130"},{"TLE_LINE1":"1 52539U 22051G   22242.91667824 -.00071515  00000-0 -45163-2 0  9991","REF_FRAME":"TEME","EPOCH":"2022-08-30T22:00:00.999936","SEMIMAJOR_AXIS":"6917.789","APOAPSIS":"541.407","MEAN_ELEMENT_THEORY":"SGP4","RA_OF_ASC_NODE":"145.6835","EPHEMERIS_TYPE":"0","MEAN_MOTION_DDOT":"0.0000000000000","GP_ID":"211362804","CENTER_NAME":"EARTH","INCLINATION":"53.2154","BSTAR":"-0.00451630000000","NORAD_CAT_ID":"52539","ELEMENT_SET_NO":"999","DECAY_DATE":null,"FILE":"3552179","TLE_LINE2":"2 52539  53.2154 145.6835 0002534  63.4209 281.8909 15.08869793  1303","SITE":"AFWTR","ARG_OF_PERICENTER":"63.4209","PERIOD":"95.436","OBJECT_NAME":"STARLINK-3757","OBJECT_ID":"2022-051G","CLASSIFICATION_TYPE":"U","MEAN_ANOMALY":"281.8909","RCS_SIZE":"LARGE","PERIAPSIS":"537.901","LAUNCH_DATE":"2022-05-13","MEAN_MOTION_DOT":"-0.00071515","COUNTRY_CODE":"US","OBJECT_TYPE":"PAYLOAD","REV_AT_EPOCH":"130","TIME_SYSTEM":"UTC","ECCENTRICITY":"0.00025340","MEAN_MOTION":"15.08869793"},{"TLE_LINE2":"2 52540  53.2166 145.6755 0002316  62.6910   2.6556 15.08842128  1307","SITE":"AFWTR","OBJECT_NAME":"STARLINK-3940","OBJECT_ID":"2022-051H","ARG_OF_PERICENTER":"62.6910","PERIOD":"95.437","CLASSIFICATION_TYPE":"U","MEAN_ANOMALY":"2.6556","PERIAPSIS":"538.137","LAUNCH_DATE":"2022-05-13","MEAN_MOTION_DOT":"-0.00026102","RCS_SIZE":"LARGE","COUNTRY_CODE":"US","OBJECT_TYPE":"PAYLOAD","REV_AT_EPOCH":"130","TIME_SYSTEM":"UTC","ECCENTRICITY":"0.00023160","MEAN_MOTION":"15.08842128","TLE_LINE1":"1 52540U 22051H   22242.91667824 -.00026102  00000-0 -16277-2 0  9999","REF_FRAME":"TEME","EPOCH":"2022-08-30T22:00:00.999936","SEMIMAJOR_AXIS":"6917.874","APOAPSIS":"541.341","MEAN_ELEMENT_THEORY":"SGP4","RA_OF_ASC_NODE":"145.6755","MEAN_MOTION_DDOT":"0.0000000000000","GP_ID":"211362948","EPHEMERIS_TYPE":"0","CENTER_NAME":"EARTH","INCLINATION":"53.2166","BSTAR":"-0.00162770000000","NORAD_CAT_ID":"52540","FILE":"3552179","DECAY_DATE":null,"ELEMENT_SET_NO":"999"},{"REF_FRAME":"TEME","TLE_LINE1":"1 52541U 22051J   22242.91667824 -.00021388  00000-0 -13290-2 0  9993","APOAPSIS":"541.546","EPOCH":"2022-08-30T22:00:00.999936","SEMIMAJOR_AXIS":"6917.831","EPHEMERIS_TYPE":"0","MEAN_MOTION_DDOT":"0.0000000000000","GP_ID":"211363810","CENTER_NAME":"EARTH","RA_OF_ASC_NODE":"150.6822","MEAN_ELEMENT_THEORY":"SGP4","ELEMENT_SET_NO":"999","DECAY_DATE":null,"FILE":"3552179","INCLINATION":"53.2129","BSTAR":"-0.00132900000000","NORAD_CAT_ID":"52541","PERIOD":"95.437","ARG_OF_PERICENTER":"62.9097","OBJECT_NAME":"STARLINK-3845","OBJECT_ID":"2022-051J","CLASSIFICATION_TYPE":"U","TLE_LINE2":"2 52541  53.2129 150.6822 0002675  62.9097 174.8806 15.08856176  1303","SITE":"AFWTR","COUNTRY_CODE":"US","OBJECT_TYPE":"PAYLOAD","MEAN_ANOMALY":"174.8806","RCS_SIZE":"LARGE","MEAN_MOTION_DOT":"-0.00021388","LAUNCH_DATE":"2022-05-13","PERIAPSIS":"537.845","TIME_SYSTEM":"UTC","REV_AT_EPOCH":"130","MEAN_MOTION":"15.08856176","ECCENTRICITY":"0.00026750"},{"LAUNCH_DATE":"2022-05-13","PERIAPSIS":"538.230","MEAN_MOTION_DOT":"-0.00035365","RCS_SIZE":"LARGE","MEAN_ANOMALY":"23.7588","OBJECT_TYPE":"PAYLOAD","COUNTRY_CODE":"US","SITE":"AFWTR","TLE_LINE2":"2 52542  53.2176 145.6596 0002116  61.5308  23.7588 15.08856748  1302","CLASSIFICATION_TYPE":"U","OBJECT_ID":"2022-051K","OBJECT_NAME":"STARLINK-3937","ARG_OF_PERICENTER":"61.5308","PERIOD":"95.436","ECCENTRICITY":"0.00021160","MEAN_MOTION":"15.08856748","REV_AT_EPOCH":"130","TIME_SYSTEM":"UTC","SEMIMAJOR_AXIS":"6917.829","EPOCH":"2022-08-30T22:00:00.999936","APOAPSIS":"541.158","TLE_LINE1":"1 52542U 22051K   22242.91667824 -.00035365  00000-0 -22138-2 0  9995","REF_FRAME":"TEME","BSTAR":"-0.00221380000000","NORAD_CAT_ID":"52542","INCLINATION":"53.2176","DECAY_DATE":null,"FILE":"3552179","ELEMENT_SET_NO":"999","MEAN_ELEMENT_THEORY":"SGP4","RA_OF_ASC_NODE":"145.6596","CENTER_NAME":"EARTH","MEAN_MOTION_DDOT":"0.0000000000000","GP_ID":"211363092","EPHEMERIS_TYPE":"0"}];
